ONEWEB-0504             
1 54122U 22138K   24220.56796568  .00000097  00000+0  20988-3 0  9997
2 54122  87.9105  79.9860 0001849  70.0960 290.0372 13.19723809 88191
ONEWEB-0505             
1 54123U 22138L   24220.56480228  .00000042  00000+0  73322-4 0  9992
2 54123  87.9104  79.9807 0001608  56.8600 303.2687 13.19723591 87304
ONEWEB-0506             
1 54124U 22138M   24220.69116807  .00000061  00000+0  11934-3 0  9997
2 54124  87.9105  79.9522 0001637  74.9458 285.1855 13.19724396 88180
ONEWEB-0507             
1 54125U 22138N   24220.56006874  .00000111  00000+0  24559-3 0  9999
2 54125  87.9111  80.0042 0001503  76.0119 284.1181 13.19724433 87347
ONEWEB-0508             
1 54126U 22138P   24220.55690976  .00000089  00000+0  19065-3 0  9991
2 54126  87.9109  79.9969 0001324  71.7044 288.4233 13.19724258 87328
ONEWEB-0509             
1 54127U 22138Q   24220.53163725 -.00000007  00000+0 -50940-4 0  9997
2 54127  87.9102  79.9853 0001713  76.7363 283.3960 13.19725347 87292
ONEWEB-0510             
1 54128U 22138R   24220.50214338  .00000032  00000+0  45908-4 0  9996
2 54128  87.9183  49.4417 0001826 103.6210 256.5127 13.20770771 89692
ONEWEB-0511             
1 54129U 22138S   24220.68011130  .00000013  00000+0 -16400-7 0  9999
2 54129  87.9104  79.9591 0002038  74.2137 285.9221 13.19725082 88215
